*******************************************************************************
 Revised: Sep 29, 2017              Chaldene / (Jupiter)                    521

 Recently discovered Jovian irregular satellite.
*******************************************************************************
 
 
*******************************************************************************
Ephemeris / WWW_USER Sun Nov 12 11:09:49 2017 Pasadena, USA      / Horizons    
*******************************************************************************
Target body name: Chaldene (521)                  {source: jup341}
Center body name: Solar System Barycenter (0)     {source: DE431mx}
Center-site name: BODY CENTER
*******************************************************************************
Start time      : A.D. 2017-Jul-10 00:00:00.0000 TDB
Stop  time      : A.D. 2020-Aug-13 00:00:00.0000 TDB
Step-size       : 1440 minutes
*******************************************************************************
Center geodetic : 0.00000000,0.00000000,0.0000000 {E-lon(deg),Lat(deg),Alt(km)}
Center cylindric: 0.00000000,0.00000000,0.0000000 {E-lon(deg),Dxy(km),Dz(km)}
Center radii    : (undefined)                                                  
Output units    : KM-S                                                         
Output type     : GEOMETRIC cartesian states
Output format   : 3 (position, velocity, LT, range, range-rate)
Reference frame : ICRF/J2000.0                                                 
Coordinate systm: Ecliptic and Mean Equinox of Reference Epoch                 
*******************************************************************************
            JDTDB,            Calendar Date (TDB),                      X,                      Y,                      Z,                     VX,                     VY,                     VZ,                     LT,                     RG,                     RR,
**************************************************************************************************************************************************************************************************************************************************************************
$$SOE
2458060.500000000, A.D. 2017-Nov-03 00:00:00.0000, -6.521677362103443E+08, -4.487233015940457E+08,  1.449416389245969E+07,  6.939926461229258E+00, -1.246461375843679E+01, -5.954205597943929E-01,  2.641030325652593E+03,  7.917609729799314E+08,  1.336939331489889E+00,
2458061.500000000, A.D. 2017-Nov-04 00:00:00.0000, -6.515682997802157E+08, -4.497999145217719E+08,  1.444279311605257E+07,  6.935900296811123E+00, -1.245695449522563E+01, -5.937103279291298E-01,  2.641418663378668E+03,  7.918773937013656E+08,  1.357974702184982E+00,
2458062.500000000, A.D. 2017-Nov-05 00:00:00.0000, -6.509692154859085E+08, -4.508758585932362E+08,  1.439157203955764E+07,  6.931775284318146E+00, -1.244913073235796E+01, -5.919552432433246E-01,  2.641813054647588E+03,  7.919956292292886E+08,  1.378948294789942E+00,
2458063.500000000, A.D. 2017-Nov-06 00:00:00.0000, -6.503704918376348E+08, -4.519511195328873E+08,  1.434050454880002E+07,  6.927552128273759E+00, -1.244114101714167E+01, -5.901550620408331E-01,  2.642213481268042E+03,  7.921156741100831E+08,  1.399857421028191E+00,
2458064.500000000, A.D. 2017-Nov-07 00:00:00.0000, -6.497721372839370E+08, -4.530256829398526E+08,  1.428959455062589E+07,  6.923231548913217E+00, -1.243298390047316E+01, -5.883095408553860E-01,  2.642619924271869E+03,  7.922375226572373E+08,  1.420699379977485E+00,
2458065.500000000, A.D. 2017-Nov-08 00:00:00.0000, -6.491741602108290E+08, -4.540995342875533E+08,  1.423884597299144E+07,  6.918814274568706E+00, -1.242465791672546E+01, -5.864184346594881E-01,  2.643032363910494E+03,  7.923611689502776E+08,  1.441471453056770E+00,
2458066.500000000, A.D. 2017-Nov-09 00:00:00.0000, -6.485765689402195E+08, -4.551726589214785E+08,  1.418826276492956E+07,  6.914301067645217E+00, -1.241616157314314E+01, -5.844815020374101E-01,  2.643450779645920E+03,  7.924866068320665E+08,  1.462170876645007E+00,
2458067.500000000, A.D. 2017-Nov-10 00:00:00.0000, -6.479793717255476E+08, -4.562450420585095E+08,  1.413784889592150E+07,  6.909692749341700E+00, -1.240749339449621E+01, -5.824985109279659E-01,  2.643875150137061E+03,  7.926138299047086E+08,  1.482794847636324E+00,
2458068.500000000, A.D. 2017-Nov-11 00:00:00.0000, -6.473825767488486E+08, -4.573166687888747E+08,  1.408760835552144E+07,  6.904990131513284E+00, -1.239865190453874E+01, -5.804692243640837E-01,  2.644305453235173E+03,  7.927428315281765E+08,  1.503340569222692E+00,
2458069.500000000, A.D. 2017-Nov-12 00:00:00.0000, -6.467861921238204E+08, -4.583875240714364E+08,  1.403754515432292E+07,  6.900194038431088E+00, -1.238963558776234E+01, -5.783934041433625E-01,  2.644741665982955E+03,  7.928736048200450E+08,  1.523805210965495E+00,
2458070.500000000, A.D. 2017-Nov-13 00:00:00.0000, -6.461902258849010E+08, -4.594575927399751E+08,  1.398766332184330E+07,  6.895305344209236E+00, -1.238044297803697E+01, -5.762708196925770E-01,  2.645183764596587E+03,  7.930061426501042E+08,  1.544185929661460E+00,
2458071.500000000, A.D. 2017-Nov-14 00:00:00.0000, -6.455946859985979E+08, -4.605268594971038E+08,  1.393796690940583E+07,  6.890324971116021E+00, -1.237107256834296E+01, -5.741012485218464E-01,  2.645631724484906E+03,  7.931404376461089E+08,  1.564479818771915E+00,
2458072.500000000, A.D. 2017-Nov-15 00:00:00.0000, -6.449995803460901E+08, -4.615953089160056E+08,  1.388845998638988E+07,  6.885253770303810E+00, -1.236152285828515E+01, -5.718844477755605E-01,  2.646085520205156E+03,  7.932764821805122E+08,  1.584684033862836E+00,
2458073.500000000, A.D. 2017-Nov-16 00:00:00.0000, -6.444049167361779E+08, -4.626629254389948E+08,  1.383914664364618E+07,  6.880092671037372E+00, -1.235179231519858E+01, -5.696201881565575E-01,  2.646545125495590E+03,  7.934142683802413E+08,  1.604795647842261E+00,
2458074.500000000, A.D. 2017-Nov-17 00:00:00.0000, -6.438107028930559E+08, -4.637296933762927E+08,  1.379003099096376E+07,  6.874842663606739E+00, -1.234187941847007E+01, -5.673082514787380E-01,  2.647010513239795E+03,  7.935537881159997E+08,  1.624811691177613E+00,
2458075.500000000, A.D. 2017-Nov-18 00:00:00.0000, -6.432169464565635E+08, -4.647955969068778E+08,  1.374111715742892E+07,  6.869504718600996E+00, -1.233178264502656E+01, -5.649484109967311E-01,  2.647481655469189E+03,  7.936950330030173E+08,  1.644729209670055E+00,
2458076.500000000, A.D. 2017-Nov-19 00:00:00.0000, -6.426236549811314E+08, -4.658606200773663E+08,  1.369240929153752E+07,  6.864079849824724E+00, -1.232150045553471E+01, -5.625404459784926E-01,  2.647958523358191E+03,  7.938379943996025E+08,  1.664545205211873E+00,
2458077.500000000, A.D. 2017-Nov-20 00:00:00.0000, -6.420308359314871E+08, -4.669247468013314E+08,  1.364391156051475E+07,  6.858569113977556E+00, -1.231103131283808E+01, -5.600841422897913E-01,  2.648441087211501E+03,  7.939826634033282E+08,  1.684256647158221E+00,
2458078.500000000, A.D. 2017-Nov-21 00:00:00.0000, -6.414384966805352E+08, -4.679879608599238E+08,  1.359562815010983E+07,  6.852973576362728E+00, -1.230037368709743E+01, -5.575792843651000E-01,  2.648929316459922E+03,  7.941290308497798E+08,  1.703860503580775E+00,
2458079.500000000, A.D. 2017-Nov-22 00:00:00.0000, -6.408466445088071E+08, -4.690502459018391E+08,  1.354756326478934E+07,  6.847294313843709E+00, -1.228952603907465E+01, -5.550256553284658E-01,  2.649423179659248E+03,  7.942770873122216E+08,  1.723353729246925E+00,
2458080.500000000, A.D. 2017-Nov-23 00:00:00.0000, -6.402552866023852E+08, -4.701115854420311E+08,  1.349972112760842E+07,  6.841532438599246E+00, -1.227848681302645E+01, -5.524230424560788E-01,  2.649922644482602E+03,  7.944268230992994E+08,  1.742733242323299E+00,
2458081.500000000, A.D. 2017-Nov-24 00:00:00.0000, -6.396644300496536E+08, -4.711719628607658E+08,  1.345210597978783E+07,  6.835689097271533E+00, -1.226725444949115E+01, -5.497712373878656E-01,  2.650427677710332E+03,  7.945782282520121E+08,  1.761995932869126E+00,
2458082.500000000, A.D. 2017-Nov-25 00:00:00.0000, -6.390740818390646E+08, -4.722313614036762E+08,  1.340472208050805E+07,  6.829765455188300E+00, -1.225582738997608E+01, -5.470700323758404E-01,  2.650938245224701E+03,  7.947312925421199E+08,  1.781138678679437E+00,
2458083.500000000, A.D. 2017-Nov-26 00:00:00.0000, -6.384842488572782E+08, -4.732897641812018E+08,  1.335757370682240E+07,  6.823762708253583E+00, -1.224420406067461E+01, -5.443192225584816E-01,  2.651454312004461E+03,  7.948860054705163E+08,  1.800158326251114E+00,
2458084.500000000, A.D. 2017-Nov-27 00:00:00.0000, -6.378949378852981E+08, -4.743471541671287E+08,  1.331066515310374E+07,  6.817682107495270E+00, -1.223238287757150E+01, -5.415186124628644E-01,  2.651975842112291E+03,  7.950423562634635E+08,  1.819051674238634E+00,
2458085.500000000, A.D. 2017-Nov-28 00:00:00.0000, -6.373061555944906E+08, -4.754035141996037E+08,  1.326400073033386E+07,  6.811524929698678E+00, -1.222036229075907E+01, -5.386680108335637E-01,  2.652502798686940E+03,  7.952003338702370E+08,  1.837815523963625E+00,
2458086.500000000, A.D. 2017-Nov-29 00:00:00.0000, -6.367179085463164E+08, -4.764588269832824E+08,  1.321758476628363E+07,  6.805292447931164E+00, -1.220814073505828E+01, -5.357672203671529E-01,  2.653035143947734E+03,  7.953599269644748E+08,  1.856446674105162E+00,
2458087.500000000, A.D. 2017-Nov-30 00:00:00.0000, -6.361302031896352E+08, -4.775130750831391E+08,  1.317142160553861E+07,  6.798985984733439E+00, -1.219571660251166E+01, -5.328160497355237E-01,  2.653572839176002E+03,  7.955211239386123E+08,  1.874941861432839E+00,
2458088.500000000, A.D. 2017-Dec-01 00:00:00.0000, -6.355430458581487E+08, -4.785662409325444E+08,  1.312551560868669E+07,  6.792606865211674E+00, -1.218308833508015E+01, -5.298143064852496E-01,  2.654115844725400E+03,  7.956839129069740E+08,  1.893297854397477E+00,
